NORAD_CAT_ID,OBJECT_NAME,OBJECT_TYPE,EPOCH,MEAN_MOTION,ECCENTRICITY,INCLINATION,RA_OF_ASC_NODE,ARG_OF_PERICENTER,MEAN_ANOMALY,BSTAR,MEAN_MOTION_DOT,MEAN_MOTION_DDOT,TLE_LINE0,TLE_LINE1,TLE_LINE2,SEMIMAJOR_AXIS,PERIOD,APOGEE,PERIGEE,DECAYED
52289.0,STARLINK-3751,PAYLOAD,2024-04-27 16:46:06,15.0883602,8.25e-05,53.2161,276.2102,110.4698,249.6383,-0.000214,-3.691e-05,0.0,0 STARLINK-3751,1 52289U 22041AE  24118.69868059 -.00003691  00000-0 -21400-3 0  9993,2 52289  53.2161 276.2102 0000825 110.4698 249.6383 15.08836020112912,6917.893,95.438,540.328,539.187,0.0
52289.0,STARLINK-3751,PAYLOAD,2024-04-28 13:26:06,15.08827709,0.0001774,53.2203,272.3407,120.4742,239.6426,7.6146e-05,9.24e-06,0.0,0 STARLINK-3751,1 52289U 22041AE  24119.55980145  .00000924  00000-0  76146-4 0  9992,2 52289  53.2203 272.3407 0001774 120.4742 239.6426 15.08827709111829,6917.918,95.438,541.01,538.556,0.0
52289.0,STARLINK-3751,PAYLOAD,2024-04-28 16:36:53,15.08826624,0.0001475,53.2185,271.7467,108.1113,252.004,6.45e-05,7.38e-06,0.0,0 STARLINK-3751,1 52289U 22041AE  24119.69228376  .00000738  00000-0  64500-4 0  9992,2 52289  53.2185 271.7467 0001475 108.1113 252.0040 15.08826624111848,6917.921,95.438,540.807,538.766,0.0
52289.0,STARLINK-3751,PAYLOAD,2024-04-29 13:16:53,15.08827746,0.0001324,53.2197,267.8815,112.9559,247.1573,0.00027992,4.168e-05,0.0,0 STARLINK-3751,1 52289U 22041AE  24120.55340188  .00004168  00000-0  27992-3 0  9999,2 52289  53.2197 267.8815 0001324 112.9559 247.1573 15.08827746113196,6917.918,95.438,540.699,538.867,0.0
52289.0,STARLINK-3751,PAYLOAD,2024-04-29 14:52:17,15.08828308,0.0001333,53.2194,267.5843,112.0912,248.0221,0.00027013,4.012e-05,0.0,0 STARLINK-3751,1 52289U 22041AE  24120.61964231  .00004012  00000-0  27013-3 0  9999,2 52289  53.2194 267.5843 0001333 112.0912 248.0221 15.08828308111985,6917.916,95.438,540.703,538.859,0.0
52289.0,STARLINK-3751,PAYLOAD,2024-04-29 19:38:26,15.08839445,0.000141,53.2183,266.692,108.5949,251.5196,0.00012876,1.762e-05,0.0,0 STARLINK-3751,1 52289U 22041AE  24120.81835999  .00001762  00000-0  12876-3 0  9999,2 52289  53.2183 266.6920 0001410 108.5949 251.5196 15.08839445112014,6917.882,95.438,540.723,538.772,0.0
52289.0,STARLINK-3751,PAYLOAD,2024-04-30 14:43:03,15.088459,0.0001527,53.218,263.1204,116.1836,243.9314,-3.5898e-05,-8.59e-06,0.0,0 STARLINK-3751,1 52289U 22041AE  24121.61323952 -.00000859  00000-0 -35898-4 0  9997,2 52289  53.2180 263.1204 0001527 116.1836 243.9314 15.08845900112130,6917.862,95.437,540.784,538.671,0.0
52289.0,STARLINK-3751,PAYLOAD,2024-04-30 16:18:27,15.08837247,0.0001152,53.2176,262.8287,103.7764,256.3357,9.0072e-05,1.146e-05,0.0,0 STARLINK-3751,1 52289U 22041AE  24121.67948465  .00001146  00000-0  90072-4 0  9998,2 52289  53.2176 262.8287 0001152 103.7764 256.3357 15.08837247113364,6917.889,95.438,540.551,538.957,0.0
52289.0,STARLINK-3751,PAYLOAD,2024-05-01 01:50:45,15.08844925,0.0001227,53.2181,261.0435,103.7486,256.3643,0.00012872,1.762e-05,0.0,0 STARLINK-3751,1 52289U 22041AE  24122.07691851  .00001762  00000-0  12872-3 0  9992,2 52289  53.2181 261.0435 0001227 103.7486 256.3643 15.08844925113426,6917.865,95.437,540.579,538.882,0.0
52289.0,STARLINK-3751,PAYLOAD,2024-05-01 09:47:41,15.08842568,0.0001483,53.2194,259.5608,111.0462,249.0689,5.8292e-05,6.4e-06,0.0,0 STARLINK-3751,1 52289U 22041AE  24122.40812216  .00000640  00000-0  58292-4 0  9990,2 52289  53.2194 259.5608 0001483 111.0462 249.0689 15.08842568112254,6917.873,95.437,540.763,538.712,0.0
52289.0,STARLINK-3751,PAYLOAD,2024-05-01 16:09:14,15.088436,0.0001496,53.2192,258.3717,112.8976,247.2174,8.594e-05,1.08e-05,0.0,0 STARLINK-3751,1 52289U 22041AE  24122.67308048  .00001080  00000-0  85940-4 0  9991,2 52289  53.2192 258.3717 0001496 112.8976 247.2174 15.08843600112294,6917.869,95.437,540.769,538.699,0.0
52289.0,STARLINK-3751,PAYLOAD,2024-05-02 12:49:15,15.08827939,0.0001462,53.2189,254.5028,99.9702,260.1455,-4.9929e-05,-1.082e-05,0.0,0 STARLINK-3751,1 52289U 22041AE  24123.53421249 -.00001082  00000-0 -49929-4 0  9997,2 52289  53.2189 254.5028 0001462  99.9702 260.1455 15.08827939113641,6917.917,95.438,540.794,538.771,0.0
52289.0,STARLINK-3751,PAYLOAD,2024-05-02 14:24:39,15.08828924,0.0001487,53.2185,254.2054,99.2871,260.8289,-4.067e-05,-9.35e-06,0.0,0 STARLINK-3751,1 52289U 22041AE  24123.60045218 -.00000935  00000-0 -40670-4 0  9993,2 52289  53.2185 254.2054 0001487  99.2871 260.8289 15.08828924112433,6917.914,95.438,540.808,538.751,0.0
52289.0,STARLINK-3751,PAYLOAD,2024-05-03 01:32:20,15.08834023,0.0001496,53.2187,252.1244,96.7093,263.4069,-1.7583e-05,-5.68e-06,0.0,0 STARLINK-3751,1 52289U 22041AE  24124.06413037 -.00000568  00000-0 -17583-4 0  9991,2 52289  53.2187 252.1244 0001496  96.7093 263.4069 15.08834023113726,6917.899,95.438,540.799,538.729,0.0
52289.0,STARLINK-3751,PAYLOAD,2024-05-03 12:40:02,15.08841667,0.0001664,53.2179,250.0424,95.6839,264.4343,4.7658e-05,4.71e-06,0.0,0 STARLINK-3751,1 52289U 22041AE  24124.52780520  .00000471  00000-0  47658-4 0  9993,2 52289  53.2179 250.0424 0001664  95.6839 264.4343 15.08841667113792,6917.875,95.437,540.891,538.589,0.0
52289.0,STARLINK-3751,PAYLOAD,2024-05-03 14:15:25,15.08843188,0.0001402,53.2176,249.7449,93.1322,266.983,6.187e-05,6.97e-06,0.0,0 STARLINK-3751,1 52289U 22041AE  24124.59404409  .00000697  00000-0  61870-4 0  9991,2 52289  53.2176 249.7449 0001402  93.1322 266.9830 15.08843188112585,6917.871,95.437,540.706,538.766,0.0
52289.0,STARLINK-3751,PAYLOAD,2024-05-03 17:26:11,15.08847063,0.0001321,53.2167,249.149,84.9871,275.1272,0.00013535,1.867e-05,0.0,0 STARLINK-3751,1 52289U 22041AE  24124.72652066  .00001867  00000-0  13535-3 0  9994,2 52289  53.2167 249.1490 0001321  84.9871 275.1272 15.08847063112603,6917.859,95.437,540.638,538.81,0.0
52289.0,STARLINK-3751,PAYLOAD,2024-05-04 12:30:49,15.0883017,0.0001392,53.2163,245.578,97.9847,262.1304,0.00017961,2.571e-05,0.0,0 STARLINK-3751,1 52289U 22041AE  24125.52141170  .00002571  00000-0  17961-3 0  9992,2 52289  53.2163 245.5780 0001392  97.9847 262.1304 15.08830170113947,6917.91,95.438,540.738,538.812,0.0
52289.0,STARLINK-3751,PAYLOAD,2024-05-05 12:21:36,15.08845288,0.0001368,53.2182,241.1191,92.4368,267.6781,0.0001769,2.529e-05,0.0,0 STARLINK-3751,1 52289U 22041AE  24126.51500811  .00002529  00000-0  17690-3 0  9995,2 52289  53.2182 241.1191 0001368  92.4368 267.6781 15.08845288114099,6917.864,95.437,540.676,538.783,0.0
52289.0,STARLINK-3751,PAYLOAD,2024-05-05 13:56:59,15.0885008,0.00013,53.2166,240.8214,93.903,266.211,0.00016194,2.291e-05,0.0,0 STARLINK-3751,1 52289U 22041AE  24126.58124532  .00002291  00000-0  16194-3 0  9998,2 52289  53.2166 240.8214 0001300  93.9030 266.2110 15.08850080112883,6917.85,95.437,540.614,538.815,0.0
52289.0,STARLINK-3751,PAYLOAD,2024-05-06 01:04:40,15.08863232,0.0001322,53.217,238.7391,106.3152,253.7986,0.00035911,5.436e-05,0.0,0 STARLINK-3751,1 52289U 22041AE  24127.04491588  .00005436  00000-0  35911-3 0  9990,2 52289  53.2170 238.7391 0001322 106.3152 253.7986 15.08863232114177,6917.809,95.436,540.589,538.76,0.0
52289.0,STARLINK-3751,PAYLOAD,2024-05-06 12:12:23,15.08848996,0.0001493,53.2164,236.6587,91.5376,268.5787,0.00025249,3.734e-05,0.0,0 STARLINK-3751,1 52289U 22041AE  24127.50860354  .00003734  00000-0  25249-3 0  9994,2 52289  53.2164 236.6587 0001493  91.5376 268.5787 15.08848996114247,6917.853,95.437,540.751,538.685,0.0
52289.0,STARLINK-3751,PAYLOAD,2024-05-06 13:47:46,15.08852092,0.0001445,53.2167,236.3609,93.7035,266.4123,0.00032118,4.829e-05,0.0,0 STARLINK-3751,1 52289U 22041AE  24127.57484268  .00004829  00000-0  32118-3 0  9996,2 52289  53.2167 236.3609 0001445  93.7035 266.4123 15.08852092113034,6917.843,95.437,540.708,538.709,0.0
52289.0,STARLINK-3751,PAYLOAD,2024-05-07 13:38:33,15.08835846,0.0001482,53.2164,231.902,90.909,269.2072,-9.9767e-05,-1.875e-05,0.0,0 STARLINK-3751,1 52289U 22041AE  24128.56844619 -.00001875  00000-0 -99767-4 0  9990,2 52289  53.2164 231.9020 0001482  90.9090 269.2072 15.08835846114404,6917.893,95.438,540.783,538.733,0.0
52289.0,STARLINK-3751,PAYLOAD,2024-05-07 16:49:20,15.08835853,0.0001256,53.2166,231.3071,89.3389,270.7747,-0.00017562,-3.081e-05,0.0,0 STARLINK-3751,1 52289U 22041AE  24128.70092800 -.00003081  00000-0 -17562-3 0  9996,2 52289  53.2166 231.3071 0001256  89.3389 270.7747 15.08835853113209,6917.893,95.438,540.627,538.889,0.0
52289.0,STARLINK-3751,PAYLOAD,2024-05-08 13:29:20,15.08837125,0.0001298,53.2167,227.4431,83.9898,276.1242,0.00011475,1.539e-05,0.0,0 STARLINK-3751,1 52289U 22041AE  24129.56204856  .00001539  00000-0  11475-3 0  9998,2 52289  53.2167 227.4431 0001298  83.9898 276.1242 15.08837125113335,6917.889,95.438,540.652,538.856,0.0
52289.0,STARLINK-3751,PAYLOAD,2024-05-09 05:23:12,15.08838044,0.0001783,53.2171,224.4695,96.1477,263.9718,0.00020291,2.943e-05,0.0,0 STARLINK-3751,1 52289U 22041AE  24130.22444620  .00002943  00000-0  20291-3 0  9994,2 52289  53.2171 224.4695 0001783  96.1477 263.9718 15.08838044114656,6917.886,95.438,540.985,538.518,0.0
52289.0,STARLINK-3751,PAYLOAD,2024-05-09 13:20:08,15.088324,0.0001154,53.216,222.9835,101.6692,258.443,0.0001607,2.27e-05,0.0,0 STARLINK-3751,1 52289U 22041AE  24130.55565397  .00002270  00000-0  16070-3 0  9998,2 52289  53.2160 222.9835 0001154 101.6692 258.4430 15.08832400114702,6917.904,95.438,540.567,538.97,0.0
52289.0,STARLINK-3751,PAYLOAD,2024-05-09 22:52:26,15.08852181,0.0001259,53.2178,221.1954,81.5232,278.5903,0.00032943,4.961e-05,0.0,0 STARLINK-3751,1 52289U 22041AE  24130.95308371  .00004961  00000-0  32943-3 0  9995,2 52289  53.2178 221.1954 0001259  81.5232 278.5903 15.08852181114768,6917.843,95.437,540.579,538.837,0.0
52289.0,STARLINK-3751,PAYLOAD,2024-05-10 13:10:55,15.08841591,0.0001504,53.2177,218.5227,85.5717,274.5447,8.672e-05,1.092e-05,0.0,0 STARLINK-3751,1 52289U 22041AE  24131.54925156  .00001092  00000-0  86720-4 0  9992,2 52289  53.2177 218.5227 0001504  85.5717 274.5447 15.08841591114857,6917.876,95.437,540.781,538.7,0.0
